COSMOS 2433 (720)       
1 32275U 07052A   23034.08366247 -.00000081  00000+0  00000+0 0  9999
2 32275  66.0635 357.0146 0004679 272.7917 159.9032  2.13103987118883
COSMOS 2432 (719)       
1 32276U 07052B   23034.28882031 -.00000081  00000+0  00000+0 0  9996
2 32276  66.0784 357.1129 0012136 321.3533 216.3863  2.13103331118886
COSMOS 2434 (721)       
1 32393U 07065A   23034.33415509  .00000092  00000+0  00000+0 0  9999
2 32393  64.3532 233.5532 0005027  73.6774  81.5644  2.13103094117590
COSMOS 2436 (723)       
1 32395U 07065C   23034.42437177  .00000091  00000+0  00000+0 0  9995
2 32395  64.3615 233.6095 0017046   8.4071 351.7129  2.13102850117532
COSMOS 2456 (730)       
1 36111U 09070A   23034.38553502 -.00000021  00000+0  00000+0 0  9993
2 36111  64.4189 113.1222 0003588 296.3765  60.5788  2.13099073102258
COSMOS 2457 (733)       
1 36112U 09070B   23034.35015507 -.00000021  00000+0  00000+0 0  9999
2 36112  64.4020 112.9936 0005440 171.5286 287.4070  2.13101232102269
COSMOS 2460 (732)       
1 36402U 10007C   23034.47217178 -.00000081  00000+0  00000+0 0  9990
2 36402  65.9301 355.7533 0002538 302.1435 236.3709  2.13106271100619
COSMOS 2476 (744)       
1 37867U 11064A   23034.46392325 -.00000020  00000+0  00000+0 0  9990
2 37867  64.7023 114.5650 0022527 234.8841  89.7005  2.13101721 87603
COSMOS 2477 (745)       
1 37868U 11064B   23033.80674439 -.00000029  00000+0  00000+0 0  9996
2 37868  64.7099 114.6542 0020046 236.3520 122.0524  2.13101528 87548
COSMOS 2475 (743)       
1 37869U 11064C   23034.33555071 -.00000022  00000+0  00000+0 0  9999
2 37869  64.7174 114.6470 0024116 252.6401 109.6858  2.13101712 87573
COSMOS 2485 (747)       
1 39155U 13019A   23034.43145747 -.00000021  00000+0  00000+0 0  9996
2 39155  64.8649 115.0438 0023065 231.4044 112.6521  2.13101768 76075
COSMOS 2492 (754)       
1 39620U 14012A   23034.64540064 -.00000081  00000+0  00000+0 0  9997
2 39620  65.8157 355.3966 0015162 318.8934 223.6061  2.13103145 69030
COSMOS 2500 (755)       
1 40001U 14032A   23034.27711964 -.00000082  00000+0  00000+0 0  9993
2 40001  65.7547 355.2522 0006405 225.8483 252.1267  2.13102343 67245
COSMOS 2501 (702K)      
1 40315U 14075A   23032.23019655  .00000102  00000+0  00000+0 0  9992
2 40315  63.6582 233.1678 0017009 204.2845 312.4734  2.13101356 63608
COSMOS 2514 (751)       
1 41330U 16008A   23034.35232170 -.00000083  00000+0  00000+0 0  9991
2 41330  65.5539 354.8845 0009995 226.2862 133.6223  2.13102699 54410
COSMOS 2516 (753)       
1 41554U 16032A   23034.47297482  .00000089  00000+0  00000+0 0  9991
2 41554  63.8848 233.4300 0013968 211.9789 147.9835  2.13106489 52027
COSMOS 2522 (752)       
1 42939U 17055A   23034.42567738  .00000090  00000+0  00000+0 0  9996
2 42939  64.1190 233.8954 0005036 238.1888 298.4804  2.13101981 41776
COSMOS 2527 (756)       
1 43508U 18053A   23034.15723593 -.00000024  00000+0  00000+0 0  9999
2 43508  65.0266 115.1013 0008882 228.7445 133.9529  2.13102459 36061
COSMOS 2529 (757)       
1 43687U 18086A   23033.84185206  .00000095  00000+0  00000+0 0  9998
2 43687  64.3331 234.2933 0007032 272.3997 131.8544  2.13102065 33076
COSMOS 2534 (758)       
1 44299U 19030A   23033.84822804  .00000095  00000+0  00000+0 0  9990
2 44299  64.4059 234.1996 0010218 295.8608 247.6398  2.13101912 28719
COSMOS 2544 (759)       
1 44850U 19088A   23034.07891573 -.00000024  00000+0  16595+1 0  9991
2 44850  65.0119 114.9525 0013097 254.8409  91.0416  2.13102175 24485
COSMOS 2545 (760)       
1 45358U 20018A   23033.66343209 -.00000085  00000+0  00000+0 0  9992
2 45358  64.8929 355.3279 0010896 257.9588 338.3883  2.13102636 22438
COSMOS 2547 (705K)      
1 46805U 20075A   23034.28553669  .00000093  00000+0  00000+0 0  9993
2 46805  64.6316 233.6771 0005145 241.9107 325.5516  2.13103018 17698
COSMOS 2557 (706K)      
1 52984U 22075A   23034.41408630 -.00000082  00000+0  10000-3 0  9996
2 52984  64.8030 357.4832 0013905 284.6873 258.2426  2.13101755  4490
COSMOS 2559 (707K)      
1 54031U 22130A   23034.34957248 -.00000082  00000+0  00000+0 0  9994
2 54031  64.7734 357.6211 0006761 238.5227 300.1071  2.13100908  2479
COSMOS 2564 (761)       
1 54377U 22161A   23034.07429272  .00000094  00000+0  00000+0 0  9994
2 54377  64.7720 233.6991 0006589 209.9939 327.8399  2.13102214  1419
